ONEWEB-0294             
1 49083U 21075J   26131.12673637 -.00000398  00000+0 -11404-2 0  9990
2 49083  87.8977 358.0264 0001446  79.1221 281.0070 13.12444817229711
ONEWEB-0295             
1 49084U 21075K   26131.13089057  .00000013  00000+0  14617-5 0  9993
2 49084  87.9169  13.2365 0001689  92.8038 267.3287 13.17647584228712
ONEWEB-0296             
1 49085U 21075L   26131.18264624 -.00000173  00000+0 -51751-3 0  9991
2 49085  87.8980 358.0213 0001566  93.1892 266.9416 13.12443498229725
ONEWEB-0297             
1 49086U 21075M   26131.13689950 -.00000209  00000+0 -61681-3 0  9993
2 49086  87.8966 358.0465 0001757  86.7192 273.4138 13.12443848230323
ONEWEB-0298             
1 49087U 21075N   26131.13525446 -.00000021  00000+0 -87435-4 0  9991
2 49087  87.9170  13.2333 0001968  83.8001 276.3354 13.17648410228749
ONEWEB-0299             
1 49088U 21075P   26131.13680760  .00000119  00000+0  27380-3 0  9991
2 49088  87.9180  13.2097 0001811  87.1383 272.9956 13.17648432228727
ONEWEB-0300             
1 49089U 21075Q   26131.12928922 -.00000235  00000+0 -68936-3 0  9999
2 49089  87.8977 358.0231 0002154  85.3022 274.8353 13.12443565230340
ONEWEB-0301             
1 49090U 21075R   26131.11319591 -.00000407  00000+0 -11662-2 0  9990
2 49090  87.8976 358.0251 0002115  81.0676 279.0692 13.12441893229701
ONEWEB-0302             
1 49091U 21075S   26131.17587492  .00000038  00000+0  68970-4 0  9998
2 49091  87.8979 358.0238 0001415  83.4415 276.6874 13.12443172229694
ONEWEB-0304             
1 49092U 21075T   26131.18743424  .00000091  00000+0  20005-3 0  9994
2 49092  87.9170  13.2255 0001759  87.2043 272.9290 13.17649693228701
ONEWEB-0305             
1 49093U 21075U   26131.18067912  .00000050  00000+0  95847-4 0  9998
2 49093  87.9177  13.2086 0001819  95.5513 264.5826 13.17649166228732
ONEWEB-0308             
1 49094U 21075V   26131.16909707  .00000211  00000+0  55070-3 0  9996
2 49094  87.8979 358.0176 0001763  82.7304 277.4025 13.12443160229709
ONEWEB-0309             
1 49095U 21075W   26131.18404698  .00000113  00000+0  25748-3 0  9998
2 49095  87.9169  13.2192 0001373  82.3080 277.8207 13.17649137228706
ONEWEB-0310             
1 49096U 21075X   26131.18433223 -.00000496  00000+0 -14143-2 0  9997
2 49096  87.8968 358.0394 0001763  82.6561 277.4768 13.12441531230330
ONEWEB-0311             
1 49097U 21075Y   26131.19080854  .00000060  00000+0  12156-3 0  9995
2 49097  87.9175  13.2166 0001998  94.7365 265.3995 13.17648206228759
ONEWEB-0312             
1 49098U 21075Z   26131.13004265  .00000053  00000+0  10273-3 0  9992
2 49098  87.9170  13.2407 0001614  91.5515 268.5802 13.17647672228725
ONEWEB-0313             
1 49099U 21075AA  26131.13499265  .00000056  00000+0  11080-3 0  9991
2 49099  87.9165  13.2464 0001821  85.4287 274.7053 13.17649992228714
