[{"OBJECT_NAME":"ONEWEB-0294","OBJECT_ID":"2021-075J","EPOCH":"2026-05-11T03:02:30.022368","MEAN_MOTION":13.12444817,"ECCENTRICITY":0.0001446,"INCLINATION":87.8977,"RA_OF_ASC_NODE":358.0264,"ARG_OF_PERICENTER":79.1221,"MEAN_ANOMALY":281.007,"EPHEMERIS_TYPE":0,"CLASSIFICATION_TYPE":"U","NORAD_CAT_ID":49083,"ELEMENT_SET_NO":999,"REV_AT_EPOCH":22971,"BSTAR":-0.0011404,"MEAN_MOTION_DOT":-3.98e-06,"MEAN_MOTION_DDOT":0.0},{"OBJECT_NAME":"ONEWEB-0295","OBJECT_ID":"2021-075K","EPOCH":"2026-05-11T03:08:28.945248","MEAN_MOTION":13.17647584,"ECCENTRICITY":0.0001689,"INCLINATION":87.9169,"RA_OF_ASC_NODE":13.2365,"ARG_OF_PERICENTER":92.8038,"MEAN_ANOMALY":267.3287,"EPHEMERIS_TYPE":0,"CLASSIFICATION_TYPE":"U","NORAD_CAT_ID":49084,"ELEMENT_SET_NO":999,"REV_AT_EPOCH":22871,"BSTAR":1.4617000000000001e-06,"MEAN_MOTION_DOT":1.3e-07,"MEAN_MOTION_DDOT":0.0},{"OBJECT_NAME":"ONEWEB-0296","OBJECT_ID":"2021-075L","EPOCH":"2026-05-11T04:23:00.635136","MEAN_MOTION":13.12443498,"ECCENTRICITY":0.0001566,"INCLINATION":87.898,"RA_OF_ASC_NODE":358.0213,"ARG_OF_PERICENTER":93.1892,"MEAN_ANOMALY":266.9416,"EPHEMERIS_TYPE":0,"CLASSIFICATION_TYPE":"U","NORAD_CAT_ID":49085,"ELEMENT_SET_NO":999,"REV_AT_EPOCH":22972,"BSTAR":-0.00051751,"MEAN_MOTION_DOT":-1.73e-06,"MEAN_MOTION_DDOT":0.0},{"OBJECT_NAME":"ONEWEB-0297","OBJECT_ID":"2021-075M","EPOCH":"2026-05-11T03:17:08.116800","MEAN_MOTION":13.12443848,"ECCENTRICITY":0.0001757,"INCLINATION":87.8966,"RA_OF_ASC_NODE":358.0465,"ARG_OF_PERICENTER":86.7192,"MEAN_ANOMALY":273.4138,"EPHEMERIS_TYPE":0,"CLASSIFICATION_TYPE":"U","NORAD_CAT_ID":49086,"ELEMENT_SET_NO":999,"REV_AT_EPOCH":23032,"BSTAR":-0.00061681,"MEAN_MOTION_DOT":-2.09e-06,"MEAN_MOTION_DDOT":0.0},{"OBJECT_NAME":"ONEWEB-0298","OBJECT_ID":"2021-075N","EPOCH":"2026-05-11T03:14:45.985344","MEAN_MOTION":13.1764841,"ECCENTRICITY":0.0001968,"INCLINATION":87.917,"RA_OF_ASC_NODE":13.2333,"ARG_OF_PERICENTER":83.8001,"MEAN_ANOMALY":276.3354,"EPHEMERIS_TYPE":0,"CLASSIFICATION_TYPE":"U","NORAD_CAT_ID":49087,"ELEMENT_SET_NO":999,"REV_AT_EPOCH":22874,"BSTAR":-8.7435e-05,"MEAN_MOTION_DOT":-2.1e-07,"MEAN_MOTION_DDOT":0.0},{"OBJECT_NAME":"ONEWEB-0299","OBJECT_ID":"2021-075P","EPOCH":"2026-05-11T03:17:00.176640","MEAN_MOTION":13.17648432,"ECCENTRICITY":0.0001811,"INCLINATION":87.918,"RA_OF_ASC_NODE":13.2097,"ARG_OF_PERICENTER":87.1383,"MEAN_ANOMALY":272.9956,"EPHEMERIS_TYPE":0,"CLASSIFICATION_TYPE":"U","NORAD_CAT_ID":49088,"ELEMENT_SET_NO":999,"REV_AT_EPOCH":22872,"BSTAR":0.0002738,"MEAN_MOTION_DOT":1.19e-06,"MEAN_MOTION_DDOT":0.0},{"OBJECT_NAME":"ONEWEB-0300","OBJECT_ID":"2021-075Q","EPOCH":"2026-05-11T03:06:10.588608","MEAN_MOTION":13.12443565,"ECCENTRICITY":0.0002154,"INCLINATION":87.8977,"RA_OF_ASC_NODE":358.0231,"ARG_OF_PERICENTER":85.3022,"MEAN_ANOMALY":274.8353,"EPHEMERIS_TYPE":0,"CLASSIFICATION_TYPE":"U","NORAD_CAT_ID":49089,"ELEMENT_SET_NO":999,"REV_AT_EPOCH":23034,"BSTAR":-0.00068936,"MEAN_MOTION_DOT":-2.35e-06,"MEAN_MOTION_DDOT":0.0},{"OBJECT_NAME":"ONEWEB-0301","OBJECT_ID":"2021-075R","EPOCH":"2026-05-11T02:43:00.126624","MEAN_MOTION":13.12441893,"ECCENTRICITY":0.0002115,"INCLINATION":87.8976,"RA_OF_ASC_NODE":358.0251,"ARG_OF_PERICENTER":81.0676,"MEAN_ANOMALY":279.0692,"EPHEMERIS_TYPE":0,"CLASSIFICATION_TYPE":"U","NORAD_CAT_ID":49090,"ELEMENT_SET_NO":999,"REV_AT_EPOCH":22970,"BSTAR":-0.0011662,"MEAN_MOTION_DOT":-4.07e-06,"MEAN_MOTION_DDOT":0.0},{"OBJECT_NAME":"ONEWEB-0302","OBJECT_ID":"2021-075S","EPOCH":"2026-05-11T04:13:15.593088","MEAN_MOTION":13.12443172,"ECCENTRICITY":0.0001415,"INCLINATION":87.8979,"RA_OF_ASC_NODE":358.0238,"ARG_OF_PERICENTER":83.4415,"MEAN_ANOMALY":276.6874,"EPHEMERIS_TYPE":0,"CLASSIFICATION_TYPE":"U","NORAD_CAT_ID":49091,"ELEMENT_SET_NO":999,"REV_AT_EPOCH":22969,"BSTAR":6.897e-05,"MEAN_MOTION_DOT":3.8e-07,"MEAN_MOTION_DDOT":0.0},{"OBJECT_NAME":"ONEWEB-0304","OBJECT_ID":"2021-075T","EPOCH":"2026-05-11T04:29:54.318336","MEAN_MOTION":13.17649693,"ECCENTRICITY":0.0001759,"INCLINATION":87.917,"RA_OF_ASC_NODE":13.2255,"ARG_OF_PERICENTER":87.2043,"MEAN_ANOMALY":272.929,"EPHEMERIS_TYPE":0,"CLASSIFICATION_TYPE":"U","NORAD_CAT_ID":49092,"ELEMENT_SET_NO":999,"REV_AT_EPOCH":22870,"BSTAR":0.00020005,"MEAN_MOTION_DOT":9.1e-07,"MEAN_MOTION_DDOT":0.0},{"OBJECT_NAME":"ONEWEB-0305","OBJECT_ID":"2021-075U","EPOCH":"2026-05-11T04:20:10.675968","MEAN_MOTION":13.17649166,"ECCENTRICITY":0.0001819,"INCLINATION":87.9177,"RA_OF_ASC_NODE":13.2086,"ARG_OF_PERICENTER":95.5513,"MEAN_ANOMALY":264.5826,"EPHEMERIS_TYPE":0,"CLASSIFICATION_TYPE":"U","NORAD_CAT_ID":49093,"ELEMENT_SET_NO":999,"REV_AT_EPOCH":22873,"BSTAR":9.5847e-05,"MEAN_MOTION_DOT":5e-07,"MEAN_MOTION_DDOT":0.0},{"OBJECT_NAME":"ONEWEB-0308","OBJECT_ID":"2021-075V","EPOCH":"2026-05-11T04:03:29.986848","MEAN_MOTION":13.1244316,"ECCENTRICITY":0.0001763,"INCLINATION":87.8979,"RA_OF_ASC_NODE":358.0176,"ARG_OF_PERICENTER":82.7304,"MEAN_ANOMALY":277.4025,"EPHEMERIS_TYPE":0,"CLASSIFICATION_TYPE":"U","NORAD_CAT_ID":49094,"ELEMENT_SET_NO":999,"REV_AT_EPOCH":22970,"BSTAR":0.0005507,"MEAN_MOTION_DOT":2.11e-06,"MEAN_MOTION_DDOT":0.0},{"OBJECT_NAME":"ONEWEB-0309","OBJECT_ID":"2021-075W","EPOCH":"2026-05-11T04:25:01.659072","MEAN_MOTION":13.17649137,"ECCENTRICITY":0.0001373,"INCLINATION":87.9169,"RA_OF_ASC_NODE":13.2192,"ARG_OF_PERICENTER":82.308,"MEAN_ANOMALY":277.8207,"EPHEMERIS_TYPE":0,"CLASSIFICATION_TYPE":"U","NORAD_CAT_ID":49095,"ELEMENT_SET_NO":999,"REV_AT_EPOCH":22870,"BSTAR":0.00025748,"MEAN_MOTION_DOT":1.13e-06,"MEAN_MOTION_DDOT":0.0},{"OBJECT_NAME":"ONEWEB-0310","OBJECT_ID":"2021-075X","EPOCH":"2026-05-11T04:25:26.304672","MEAN_MOTION":13.12441531,"ECCENTRICITY":0.0001763,"INCLINATION":87.8968,"RA_OF_ASC_NODE":358.0394,"ARG_OF_PERICENTER":82.6561,"MEAN_ANOMALY":277.4768,"EPHEMERIS_TYPE":0,"CLASSIFICATION_TYPE":"U","NORAD_CAT_ID":49096,"ELEMENT_SET_NO":999,"REV_AT_EPOCH":23033,"BSTAR":-0.0014143,"MEAN_MOTION_DOT":-4.96e-06,"MEAN_MOTION_DDOT":0.0},{"OBJECT_NAME":"ONEWEB-0311","OBJECT_ID":"2021-075Y","EPOCH":"2026-05-11T04:34:45.857856","MEAN_MOTION":13.17648206,"ECCENTRICITY":0.0001998,"INCLINATION":87.9175,"RA_OF_ASC_NODE":13.2166,"ARG_OF_PERICENTER":94.7365,"MEAN_ANOMALY":265.3995,"EPHEMERIS_TYPE":0,"CLASSIFICATION_TYPE":"U","NORAD_CAT_ID":49097,"ELEMENT_SET_NO":999,"REV_AT_EPOCH":22875,"BSTAR":0.00012156000000000001,"MEAN_MOTION_DOT":6e-07,"MEAN_MOTION_DDOT":0.0},{"OBJECT_NAME":"ONEWEB-0312","OBJECT_ID":"2021-075Z","EPOCH":"2026-05-11T03:07:15.684960","MEAN_MOTION":13.17647672,"ECCENTRICITY":0.0001614,"INCLINATION":87.917,"RA_OF_ASC_NODE":13.2407,"ARG_OF_PERICENTER":91.5515,"MEAN_ANOMALY":268.5802,"EPHEMERIS_TYPE":0,"CLASSIFICATION_TYPE":"U","NORAD_CAT_ID":49098,"ELEMENT_SET_NO":999,"REV_AT_EPOCH":22872,"BSTAR":0.00010273,"MEAN_MOTION_DOT":5.3e-07,"MEAN_MOTION_DDOT":0.0},{"OBJECT_NAME":"ONEWEB-0313","OBJECT_ID":"2021-075AA","EPOCH":"2026-05-11T03:14:23.364960","MEAN_MOTION":13.17649992,"ECCENTRICITY":0.0001821,"INCLINATION":87.9165,"RA_OF_ASC_NODE":13.2464,"ARG_OF_PERICENTER":85.4287,"MEAN_ANOMALY":274.7053,"EPHEMERIS_TYPE":0,"CLASSIFICATION_TYPE":"U","NORAD_CAT_ID":49099,"ELEMENT_SET_NO":999,"REV_AT_EPOCH":22871,"BSTAR":0.0001108,"MEAN_MOTION_DOT":5.6e-07,"MEAN_MOTION_DDOT":0.0}]